QIANFAN-9               
1 60387U 24140J   25203.59101480  .00000125  00000+0  17458-3 0  9990
2 60387  88.9848 314.1168 0014570 247.1521 112.8092 13.50954131 48001
QIANFAN-10              
1 60388U 24140K   25203.59516717  .00000121  00000+0  16956-3 0  9992
2 60388  88.9858 313.4507 0013652 221.7347 138.2764 13.50956588 48136
QIANFAN-11              
1 60389U 24140L   25203.55809728  .00000122  00000+0  17059-3 0  9992
2 60389  88.9784 314.1477 0012610 246.3102 113.6727 13.50956622 47789
QIANFAN-12              
1 60390U 24140M   25203.57861581  .00000121  00000+0  16895-3 0  9997
2 60390  88.9827 314.1264 0011278 255.1551 104.8351 13.50956488 47918
QIANFAN-13              
1 60391U 24140N   25203.54983074  .00000128  00000+0  18044-3 0  9992
2 60391  88.9839 314.2115 0011056 258.2760 101.7150 13.50956265 47936
QIANFAN-14              
1 60392U 24140P   25203.57447759  .00000113  00000+0  15723-3 0  9996
2 60392  88.9818 314.1373 0014738 259.0765 100.8728 13.50957352 47943
QIANFAN-15              
1 60393U 24140Q   25203.58281784  .00000114  00000+0  15760-3 0  9994
2 60393  88.9842 314.0591 0010805 241.9872 118.0187 13.50954198 47936
QIANFAN-16              
1 60394U 24140R   25203.57046385  .00000114  00000+0  15759-3 0  9998
2 60394  88.9845 314.1760 0012620 263.2043  96.7673 13.50956476 47846
